[{"OBJECT_NAME":"STARLINK-11080 [DTC]","OBJECT_ID":"2024-152H","EPOCH":"2026-03-28T20:06:57.176064","MEAN_MOTION":15.69725922,"ECCENTRICITY":0.0001086,"INCLINATION":53.1587,"RA_OF_ASC_NODE":21.7795,"ARG_OF_PERICENTER":78.2218,"MEAN_ANOMALY":281.8921,"EPHEMERIS_TYPE":0,"CLASSIFICATION_TYPE":"U","NORAD_CAT_ID":60727,"ELEMENT_SET_NO":999,"REV_AT_EPOCH":9197,"BSTAR":4.6052e-5,"MEAN_MOTION_DOT":4.997e-5,"MEAN_MOTION_DDOT":0},{"OBJECT_NAME":"STARLINK-11249 [DTC]","OBJECT_ID":"2024-152J","EPOCH":"2026-03-28T19:59:52.617696","MEAN_MOTION":15.69724398,"ECCENTRICITY":0.0001114,"INCLINATION":53.1592,"RA_OF_ASC_NODE":21.7475,"ARG_OF_PERICENTER":82.8371,"MEAN_ANOMALY":277.2773,"EPHEMERIS_TYPE":0,"CLASSIFICATION_TYPE":"U","NORAD_CAT_ID":60728,"ELEMENT_SET_NO":999,"REV_AT_EPOCH":9184,"BSTAR":3.6263e-5,"MEAN_MOTION_DOT":3.809e-5,"MEAN_MOTION_DDOT":0},{"OBJECT_NAME":"STARLINK-11146 [DTC]","OBJECT_ID":"2024-152K","EPOCH":"2026-03-28T03:04:18.990912","MEAN_MOTION":15.69697568,"ECCENTRICITY":0.00011356,"INCLINATION":53.1597,"RA_OF_ASC_NODE":25.1548,"ARG_OF_PERICENTER":133.5222,"MEAN_ANOMALY":226.589,"EPHEMERIS_TYPE":0,"CLASSIFICATION_TYPE":"U","NORAD_CAT_ID":60729,"ELEMENT_SET_NO":999,"REV_AT_EPOCH":9186,"BSTAR":2.2957282e-5,"MEAN_MOTION_DOT":2.192e-5,"MEAN_MOTION_DDOT":0},{"OBJECT_NAME":"STARLINK-11255 [DTC]","OBJECT_ID":"2024-152L","EPOCH":"2026-03-28T02:57:15.047712","MEAN_MOTION":15.69711655,"ECCENTRICITY":0.00010222,"INCLINATION":53.1581,"RA_OF_ASC_NODE":25.1359,"ARG_OF_PERICENTER":90.5812,"MEAN_ANOMALY":269.5323,"EPHEMERIS_TYPE":0,"CLASSIFICATION_TYPE":"U","NORAD_CAT_ID":60730,"ELEMENT_SET_NO":999,"REV_AT_EPOCH":9174,"BSTAR":1.93816e-6,"MEAN_MOTION_DOT":-3.54e-6,"MEAN_MOTION_DDOT":0},{"OBJECT_NAME":"STARLINK-11254 [DTC]","OBJECT_ID":"2024-152M","EPOCH":"2026-03-28T05:53:33.446400","MEAN_MOTION":15.6971113,"ECCENTRICITY":0.0001444,"INCLINATION":53.1607,"RA_OF_ASC_NODE":24.4714,"ARG_OF_PERICENTER":95.7918,"MEAN_ANOMALY":264.3264,"EPHEMERIS_TYPE":0,"CLASSIFICATION_TYPE":"U","NORAD_CAT_ID":60731,"ELEMENT_SET_NO":999,"REV_AT_EPOCH":9176,"BSTAR":1.4522e-5,"MEAN_MOTION_DOT":1.171e-5,"MEAN_MOTION_DDOT":0},{"OBJECT_NAME":"STARLINK-11266 [DTC]","OBJECT_ID":"2024-152N","EPOCH":"2026-03-28T05:46:28.668576","MEAN_MOTION":15.69721739,"ECCENTRICITY":0.0001409,"INCLINATION":53.1588,"RA_OF_ASC_NODE":24.4283,"ARG_OF_PERICENTER":70.7017,"MEAN_ANOMALY":289.4154,"EPHEMERIS_TYPE":0,"CLASSIFICATION_TYPE":"U","NORAD_CAT_ID":60732,"ELEMENT_SET_NO":999,"REV_AT_EPOCH":9175,"BSTAR":3.594e-5,"MEAN_MOTION_DOT":3.769e-5,"MEAN_MOTION_DDOT":0},{"OBJECT_NAME":"STARLINK-32253","OBJECT_ID":"2024-152P","EPOCH":"2026-03-28T13:51:11.647296","MEAN_MOTION":15.30218216,"ECCENTRICITY":0.000104,"INCLINATION":53.1602,"RA_OF_ASC_NODE":180.6139,"ARG_OF_PERICENTER":93.0406,"MEAN_ANOMALY":267.0714,"EPHEMERIS_TYPE":0,"CLASSIFICATION_TYPE":"U","NORAD_CAT_ID":60733,"ELEMENT_SET_NO":999,"REV_AT_EPOCH":8969,"BSTAR":0.00025585,"MEAN_MOTION_DOT":7.23e-5,"MEAN_MOTION_DDOT":0},{"OBJECT_NAME":"STARLINK-32179","OBJECT_ID":"2024-152Q","EPOCH":"2026-03-28T18:00:06.378048","MEAN_MOTION":15.3020198,"ECCENTRICITY":0.0001078,"INCLINATION":53.1615,"RA_OF_ASC_NODE":180.2809,"ARG_OF_PERICENTER":84.8921,"MEAN_ANOMALY":275.2203,"EPHEMERIS_TYPE":0,"CLASSIFICATION_TYPE":"U","NORAD_CAT_ID":60734,"ELEMENT_SET_NO":999,"REV_AT_EPOCH":8963,"BSTAR":9.2094e-5,"MEAN_MOTION_DOT":2.37e-5,"MEAN_MOTION_DDOT":0},{"OBJECT_NAME":"STARLINK-32272","OBJECT_ID":"2024-152R","EPOCH":"2026-03-28T20:00:01.999008","MEAN_MOTION":15.97416354,"ECCENTRICITY":0.0017722,"INCLINATION":53.1344,"RA_OF_ASC_NODE":160.1342,"ARG_OF_PERICENTER":347.4322,"MEAN_ANOMALY":233.4099,"EPHEMERIS_TYPE":0,"CLASSIFICATION_TYPE":"U","NORAD_CAT_ID":60735,"ELEMENT_SET_NO":999,"REV_AT_EPOCH":596,"BSTAR":0.0012051,"MEAN_MOTION_DOT":0.00553163,"MEAN_MOTION_DDOT":0.00014055},{"OBJECT_NAME":"STARLINK-32289","OBJECT_ID":"2024-152T","EPOCH":"2026-03-28T17:41:52.344960","MEAN_MOTION":15.30194116,"ECCENTRICITY":0.0001505,"INCLINATION":53.1605,"RA_OF_ASC_NODE":180.1964,"ARG_OF_PERICENTER":93.6614,"MEAN_ANOMALY":266.4559,"EPHEMERIS_TYPE":0,"CLASSIFICATION_TYPE":"U","NORAD_CAT_ID":60737,"ELEMENT_SET_NO":999,"REV_AT_EPOCH":8976,"BSTAR":3.282e-5,"MEAN_MOTION_DOT":6.13e-6,"MEAN_MOTION_DDOT":0},{"OBJECT_NAME":"STARLINK-32304","OBJECT_ID":"2024-152U","EPOCH":"2026-03-28T11:21:07.988832","MEAN_MOTION":15.30181906,"ECCENTRICITY":0.00011253,"INCLINATION":53.1608,"RA_OF_ASC_NODE":181.396,"ARG_OF_PERICENTER":50.4202,"MEAN_ANOMALY":309.6898,"EPHEMERIS_TYPE":0,"CLASSIFICATION_TYPE":"U","NORAD_CAT_ID":60738,"ELEMENT_SET_NO":999,"REV_AT_EPOCH":8972,"BSTAR":4.347155e-5,"MEAN_MOTION_DOT":9.28e-6,"MEAN_MOTION_DDOT":0},{"OBJECT_NAME":"STARLINK-32235","OBJECT_ID":"2024-152V","EPOCH":"2026-03-28T15:58:41.911104","MEAN_MOTION":15.30198511,"ECCENTRICITY":0.0001546,"INCLINATION":53.1612,"RA_OF_ASC_NODE":180.4644,"ARG_OF_PERICENTER":80.7178,"MEAN_ANOMALY":279.3998,"EPHEMERIS_TYPE":0,"CLASSIFICATION_TYPE":"U","NORAD_CAT_ID":60739,"ELEMENT_SET_NO":999,"REV_AT_EPOCH":8970,"BSTAR":4.1594e-5,"MEAN_MOTION_DOT":8.73e-6,"MEAN_MOTION_DDOT":0},{"OBJECT_NAME":"STARLINK-32315","OBJECT_ID":"2024-152W","EPOCH":"2026-03-28T17:28:12.060768","MEAN_MOTION":15.30195564,"ECCENTRICITY":0.0001358,"INCLINATION":53.1599,"RA_OF_ASC_NODE":180.1434,"ARG_OF_PERICENTER":76.3744,"MEAN_ANOMALY":283.7408,"EPHEMERIS_TYPE":0,"CLASSIFICATION_TYPE":"U","NORAD_CAT_ID":60740,"ELEMENT_SET_NO":999,"REV_AT_EPOCH":8963,"BSTAR":4.45e-5,"MEAN_MOTION_DOT":9.59e-6,"MEAN_MOTION_DDOT":0},{"OBJECT_NAME":"STARLINK-11242 [DTC]","OBJECT_ID":"2024-154A","EPOCH":"2026-03-28T19:51:03.031488","MEAN_MOTION":15.69713472,"ECCENTRICITY":0.0001491,"INCLINATION":53.1591,"RA_OF_ASC_NODE":36.6648,"ARG_OF_PERICENTER":78.4816,"MEAN_ANOMALY":281.6369,"EPHEMERIS_TYPE":0,"CLASSIFICATION_TYPE":"U","NORAD_CAT_ID":60903,"ELEMENT_SET_NO":999,"REV_AT_EPOCH":9152,"BSTAR":2.2671e-5,"MEAN_MOTION_DOT":2.158e-5,"MEAN_MOTION_DDOT":0},{"OBJECT_NAME":"STARLINK-11256 [DTC]","OBJECT_ID":"2024-154B","EPOCH":"2026-03-28T21:15:39.929184","MEAN_MOTION":15.69718074,"ECCENTRICITY":5.89e-5,"INCLINATION":53.1589,"RA_OF_ASC_NODE":36.3211,"ARG_OF_PERICENTER":95.1006,"MEAN_ANOMALY":265.0079,"EPHEMERIS_TYPE":0,"CLASSIFICATION_TYPE":"U","NORAD_CAT_ID":60904,"ELEMENT_SET_NO":999,"REV_AT_EPOCH":9153,"BSTAR":1.5056e-5,"MEAN_MOTION_DOT":1.237e-5,"MEAN_MOTION_DDOT":0},{"OBJECT_NAME":"STARLINK-11159 [DTC]","OBJECT_ID":"2024-154C","EPOCH":"2026-03-28T21:01:40.999872","MEAN_MOTION":15.69722639,"ECCENTRICITY":9.62e-5,"INCLINATION":53.1583,"RA_OF_ASC_NODE":36.9901,"ARG_OF_PERICENTER":87.935,"MEAN_ANOMALY":272.1778,"EPHEMERIS_TYPE":0,"CLASSIFICATION_TYPE":"U","NORAD_CAT_ID":60905,"ELEMENT_SET_NO":999,"REV_AT_EPOCH":9152,"BSTAR":2.5373e-5,"MEAN_MOTION_DOT":2.488e-5,"MEAN_MOTION_DDOT":0}]
