STARLINK-11080 [DTC]    
1 60727U 24152H   26087.83816176  .00004997  00000+0  46052-4 0  9998
2 60727  53.1587  21.7795 0001086  78.2218 281.8921 15.69725922 91972
STARLINK-11249 [DTC]    
1 60728U 24152J   26087.83324789  .00003809  00000+0  36263-4 0  9997
2 60728  53.1592  21.7475 0001114  82.8371 277.2773 15.69724398 91843
STARLINK-11146 [DTC]    
1 60729U 24152K   26087.12799758  .00002192  00000+0  22957-4 0  9991
2 60729  53.1597  25.1548 0001135 133.5222 226.5890 15.69697568 91867
STARLINK-11255 [DTC]    
1 60730U 24152L   26087.12309083 -.00000354  00000+0  19382-5 0  9999
2 60730  53.1581  25.1359 0001022  90.5812 269.5323 15.69711655 91743
STARLINK-11254 [DTC]    
1 60731U 24152M   26087.24552600  .00001171  00000+0  14522-4 0  9995
2 60731  53.1607  24.4714 0001444  95.7918 264.3264 15.69711130 91769
STARLINK-11266 [DTC]    
1 60732U 24152N   26087.24060959  .00003769  00000+0  35940-4 0  9999
2 60732  53.1588  24.4283 0001409  70.7017 289.4154 15.69721739 91754
STARLINK-32253          
1 60733U 24152P   26087.57721814  .00007230  00000+0  25585-3 0  9990
2 60733  53.1602 180.6139 0001040  93.0406 267.0714 15.30218216 89691
STARLINK-32179          
1 60734U 24152Q   26087.75007382  .00002370  00000+0  92094-4 0  9998
2 60734  53.1615 180.2809 0001078  84.8921 275.2203 15.30201980 89635
STARLINK-32272          
1 60735U 24152R   26087.83335647  .00553163  14055-3  12051-2 0  9999
2 60735  53.1344 160.1342 0017722 347.4322 233.4099 15.97416354  5969
STARLINK-32289          
1 60737U 24152T   26087.73741140  .00000613  00000+0  32820-4 0  9995
2 60737  53.1605 180.1964 0001505  93.6614 266.4559 15.30194116 89762
STARLINK-32304          
1 60738U 24152U   26087.47300913  .00000928  00000+0  43472-4 0  9990
2 60738  53.1608 181.3960 0001125  50.4202 309.6898 15.30181906 89722
STARLINK-32235          
1 60739U 24152V   26087.66576286  .00000873  00000+0  41594-4 0  9992
2 60739  53.1612 180.4644 0001546  80.7178 279.3998 15.30198511 89704
STARLINK-32315          
1 60740U 24152W   26087.72791737  .00000959  00000+0  44500-4 0  9996
2 60740  53.1599 180.1434 0001358  76.3744 283.7408 15.30195564 89637
STARLINK-11242 [DTC]    
1 60903U 24154A   26087.82711842  .00002158  00000+0  22671-4 0  9997
2 60903  53.1591  36.6648 0001491  78.4816 281.6369 15.69713472 91523
STARLINK-11256 [DTC]    
1 60904U 24154B   26087.88587881  .00001237  00000+0  15056-4 0  9994
2 60904  53.1589  36.3211 0000589  95.1006 265.0079 15.69718074 91536
STARLINK-11159 [DTC]    
1 60905U 24154C   26087.87616898  .00002488  00000+0  25373-4 0  9997
2 60905  53.1583  36.9901 0000962  87.9350 272.1778 15.69722639 91525
